{
  "type": "FeatureCollection",
  "features": [
    {
      "type": "Feature",
      "properties": {
        "norad_id": 36744,
        "name": "COMS 1",
        "group": "weather",
        "lat": 4.368638327991487,
        "lon": 170.777636693711,
        "alt_km": 35787.0819049606,
        "timestamp": "2025-12-22T20:43:45.485831+00:00",
        "meta_object_name": "COMS 1",
        "meta_object_id": "2010-032A",
        "meta_epoch": "2025-12-21T20:05:21.835392",
        "meta_mean_motion": 1.00271509,
        "meta_eccentricity": 7.401e-05,
        "meta_inclination": 4.3609,
        "meta_ra_of_asc_node": 77.8959,
        "meta_arg_of_pericenter": 208.2946,
        "meta_mean_anomaly": 233.9792,
        "meta_ephemeris_type": 0,
        "meta_classification_type": "U",
        "meta_norad_cat_id": 36744,
        "meta_element_set_no": 999,
        "meta_rev_at_epoch": 4931,
        "meta_bstar": 0,
        "meta_mean_motion_dot": -3.25e-06,
        "meta_mean_motion_ddot": 0,
        "tle_line1": "1 36744U 10032A   25355.83705828 -.00000325  00000+0  00000+0 0  9990",
        "tle_line2": "2 36744   4.3609  77.8959 0000740 208.2946 233.9792  1.00271509 49312"
      },
      "geometry": {
        "type": "Point",
        "coordinates": [
          170.777636693711,
          4.368638327991487
        ]
      }
    },
    {
      "type": "Feature",
      "properties": {
        "norad_id": 37214,
        "name": "FENGYUN 3B",
        "group": "weather",
        "lat": 81.00119840957727,
        "lon": -54.81037834840023,
        "alt_km": 843.6414553215436,
        "timestamp": "2025-12-22T20:43:45.485843+00:00",
        "meta_object_name": "FENGYUN 3B",
        "meta_object_id": "2010-059A",
        "meta_epoch": "2025-12-22T14:14:06.526176",
        "meta_mean_motion": 14.14792227,
        "meta_eccentricity": 0.00216252,
        "meta_inclination": 98.9892,
        "meta_ra_of_asc_node": 36.6389,
        "meta_arg_of_pericenter": 329.7589,
        "meta_mean_anomaly": 182.8821,
        "meta_ephemeris_type": 0,
        "meta_classification_type": "U",
        "meta_norad_cat_id": 37214,
        "meta_element_set_no": 999,
        "meta_rev_at_epoch": 78245,
        "meta_bstar": 5.9157753e-05,
        "meta_mean_motion_dot": 6.9e-07,
        "meta_mean_motion_ddot": 0,
        "tle_line1": "1 37214U 10059A   25356.59313109  .00000069  00000+0  59158-4 0  9990",
        "tle_line2": "2 37214  98.9892  36.6389 0021625 329.7589 182.8821 14.14792227782453"
      },
      "geometry": {
        "type": "Point",
        "coordinates": [
          -54.81037834840023,
          81.00119840957727
        ]
      }
    },
    {
      "type": "Feature",
      "properties": {
        "norad_id": 37849,
        "name": "SUOMI NPP",
        "group": "weather",
        "lat": 74.6347701259213,
        "lon": 148.331537237539,
        "alt_km": 818.0609575086974,
        "timestamp": "2025-12-22T20:43:45.485855+00:00",
        "meta_object_name": "SUOMI NPP",
        "meta_object_id": "2011-061A",
        "meta_epoch": "2025-12-21T22:15:21.719808",
        "meta_mean_motion": 14.19516721,
        "meta_eccentricity": 0.0002479,
        "meta_inclination": 98.7786,
        "meta_ra_of_asc_node": 293.1866,
        "meta_arg_of_pericenter": 104.3593,
        "meta_mean_anomaly": 255.7858,
        "meta_ephemeris_type": 0,
        "meta_classification_type": "U",
        "meta_norad_cat_id": 37849,
        "meta_element_set_no": 999,
        "meta_rev_at_epoch": 73329,
        "meta_bstar": 6.3109e-05,
        "meta_mean_motion_dot": 8.9e-07,
        "meta_mean_motion_ddot": 0,
        "tle_line1": "1 37849U 11061A   25355.92733472  .00000089  00000+0  63109-4 0  9996",
        "tle_line2": "2 37849  98.7786 293.1866 0002479 104.3593 255.7858 14.19516721733291"
      },
      "geometry": {
        "type": "Point",
        "coordinates": [
          148.331537237539,
          74.6347701259213
        ]
      }
    },
    {
      "type": "Feature",
      "properties": {
        "norad_id": 38552,
        "name": "METEOSAT-10 (MSG-3)",
        "group": "weather",
        "lat": -1.3553502057248197,
        "lon": 42.98726437884324,
        "alt_km": 35784.02810709419,
        "timestamp": "2025-12-22T20:43:45.485868+00:00",
        "meta_object_name": "METEOSAT-10 (MSG-3)",
        "meta_object_id": "2012-035B",
        "meta_epoch": "2025-12-22T01:10:55.257888",
        "meta_mean_motion": 1.00276818,
        "meta_eccentricity": 7.128e-05,
        "meta_inclination": 4.2491,
        "meta_ra_of_asc_node": 61.6977,
        "meta_arg_of_pericenter": 266.7505,
        "meta_mean_anomaly": 140.4613,
        "meta_ephemeris_type": 0,
        "meta_classification_type": "U",
        "meta_norad_cat_id": 38552,
        "meta_element_set_no": 999,
        "meta_rev_at_epoch": 4908,
        "meta_bstar": 0,
        "meta_mean_motion_dot": 1.6e-07,
        "meta_mean_motion_ddot": 0,
        "tle_line1": "1 38552U 12035B   25356.04925067  .00000016  00000+0  00000+0 0  9993",
        "tle_line2": "2 38552   4.2491  61.6977 0000712 266.7505 140.4613  1.00276818 49085"
      },
      "geometry": {
        "type": "Point",
        "coordinates": [
          42.98726437884324,
          -1.3553502057248197
        ]
      }
    },
    {
      "type": "Feature",
      "properties": {
        "norad_id": 38771,
        "name": "METOP-B",
        "group": "weather",
        "lat": 23.314379095050953,
        "lon": 42.876068755524,
        "alt_km": 820.4156628509509,
        "timestamp": "2025-12-22T20:43:45.485880+00:00",
        "meta_object_name": "METOP-B",
        "meta_object_id": "2012-049A",
        "meta_epoch": "2025-12-22T13:51:39.322944",
        "meta_mean_motion": 14.21411976,
        "meta_eccentricity": 0.00032126,
        "meta_inclination": 98.6784,
        "meta_ra_of_asc_node": 46.3689,
        "meta_arg_of_pericenter": 123.4078,
        "meta_mean_anomaly": 236.7407,
        "meta_ephemeris_type": 0,
        "meta_classification_type": "U",
        "meta_norad_cat_id": 38771,
        "meta_element_set_no": 999,
        "meta_rev_at_epoch": 68817,
        "meta_bstar": 7.9266795e-05,
        "meta_mean_motion_dot": 1.3e-06,
        "meta_mean_motion_ddot": 0,
        "tle_line1": "1 38771U 12049A   25356.57753846  .00000130  00000+0  79267-4 0  9996",
        "tle_line2": "2 38771  98.6784  46.3689 0003212 123.4078 236.7407 14.21411976688174"
      },
      "geometry": {
        "type": "Point",
        "coordinates": [
          42.876068755524,
          23.314379095050953
        ]
      }
    },
    {
      "type": "Feature",
      "properties": {
        "norad_id": 39216,
        "name": "INSAT-3D",
        "group": "weather",
        "lat": 1.4752213728284733,
        "lon": 172.0899784525221,
        "alt_km": 35781.68691965489,
        "timestamp": "2025-12-22T20:43:45.485892+00:00",
        "meta_object_name": "INSAT-3D",
        "meta_object_id": "2013-038B",
        "meta_epoch": "2025-12-22T13:46:50.886048",
        "meta_mean_motion": 1.00275914,
        "meta_eccentricity": 0.00018244,
        "meta_inclination": 1.4687,
        "meta_ra_of_asc_node": 84.8862,
        "meta_arg_of_pericenter": 153.2944,
        "meta_mean_anomaly": 189.4172,
        "meta_ephemeris_type": 0,
        "meta_classification_type": "U",
        "meta_norad_cat_id": 39216,
        "meta_element_set_no": 999,
        "meta_rev_at_epoch": 4530,
        "meta_bstar": 0,
        "meta_mean_motion_dot": -3.18e-06,
        "meta_mean_motion_ddot": 0,
        "tle_line1": "1 39216U 13038B   25356.57420007 -.00000318  00000+0  00000+0 0  9993",
        "tle_line2": "2 39216   1.4687  84.8862 0001824 153.2944 189.4172  1.00275914 45301"
      },
      "geometry": {
        "type": "Point",
        "coordinates": [
          172.0899784525221,
          1.4752213728284733
        ]
      }
    },
    {
      "type": "Feature",
      "properties": {
        "norad_id": 39260,
        "name": "FENGYUN 3C",
        "group": "weather",
        "lat": 61.26323452804582,
        "lon": -41.733996294072846,
        "alt_km": 836.5595020823657,
        "timestamp": "2025-12-22T20:43:45.485903+00:00",
        "meta_object_name": "FENGYUN 3C",
        "meta_object_id": "2013-052A",
        "meta_epoch": "2025-12-22T13:38:59.556768",
        "meta_mean_motion": 14.15699068,
        "meta_eccentricity": 0.0014825,
        "meta_inclination": 98.4774,
        "meta_ra_of_asc_node": 333.7687,
        "meta_arg_of_pericenter": 167.5386,
        "meta_mean_anomaly": 192.6158,
        "meta_ephemeris_type": 0,
        "meta_classification_type": "U",
        "meta_norad_cat_id": 39260,
        "meta_element_set_no": 999,
        "meta_rev_at_epoch": 63357,
        "meta_bstar": 6.2792458e-05,
        "meta_mean_motion_dot": 8.2e-07,
        "meta_mean_motion_ddot": 0,
        "tle_line1": "1 39260U 13052A   25356.56874487  .00000082  00000+0  62792-4 0  9990",
        "tle_line2": "2 39260  98.4774 333.7687 0014825 167.5386 192.6158 14.15699068633579"
      },
      "geometry": {
        "type": "Point",
        "coordinates": [
          -41.733996294072846,
          61.26323452804582
        ]
      }
    }
  ]
}